ISS (ZARYA)             
1 25544U 98067A   26097.55354461  .00006997  00000+0  13587-3 0  9994
2 25544  51.6328 289.6501 0006332 284.4831  75.5455 15.48817814560809
POISK                   
1 36086U 09060A   26097.81163520  .00007114  00000+0  13797-3 0  9990
2 36086  51.6331 288.3735 0006339 285.1531  74.8756 15.48821670560703
CSS (TIANHE)            
1 48274U 21035A   26097.24265619  .00030960  00000+0  34619-3 0  9998
2 48274  41.4683  34.2394 0003908 149.0063 211.1007 15.62057309282070
ISS (NAUKA)             
1 49044U 21066A   26097.55354461  .00006997  00000+0  13587-3 0  9990
2 49044  51.6328 289.6501 0006332 284.4831  75.5455 15.48817814560619
FREGAT DEB              
1 49271U 11037PF  26097.28411068  .00007090  00000+0  10389-1 0  9996
2 49271  51.6404 214.8833 0953625 124.9641 244.4565 12.40960263216249
CSS (WENTIAN)           
1 53239U 22085A   26097.24265619  .00030960  00000+0  34619-3 0  9991
2 53239  41.4683  34.2394 0003908 149.0063 211.1007 15.62057309282358
CSS (MENGTIAN)          
1 54216U 22143A   26097.24265619  .00030960  00000+0  34619-3 0  9992
2 54216  41.4683  34.2394 0003908 149.0063 211.1007 15.62057309282354
TIANZHOU-9              
1 64786U 25149A   26097.24265619  .00030960  00000+0  34619-3 0  9994
2 64786  41.4683  34.2394 0003908 149.0063 211.1007 15.62057309282357
PROGRESS-MS 32          
1 65586U 25204A   26097.55354461  .00006997  00000+0  13587-3 0  9997
2 65586  51.6328 289.6501 0006332 284.4831  75.5455 15.48817814554509
YOTSUBA-KULOVER         
1 65941U 98067XN  26097.75414413  .00782216  31052-3  12041-2 0  9998
2 65941  51.6139 264.5587 0009569 287.9509  72.0459 16.03604454 28121
BOTAN                   
1 65943U 98067XQ  26097.83662339  .00689339  23094-3  12016-2 0  9992
2 65943  51.6174 264.3920 0009292 286.3833  73.6156 16.01506813 28137
HRC MONOBLOCK CAMERA    
1 66052U 98067XR  26096.69147014  .00067978  00000+0  66599-3 0  9998
2 66052  51.6271 283.8871 0003812 235.8799 124.1835 15.65455485 26771
HTV-X1                  
1 66174U 25241A   26097.86489482  .00004678  00000+0  15797-3 0  9997
2 66174  51.6371 292.4123 0007378 285.9402  74.0766 15.32577629 25416
SZ-21 MODULE            
1 66515U 25246C   26097.51266071  .00039687  00000+0  30856-3 0  9991
2 66515  41.4753  25.6258 0003782 241.5464 118.4997 15.70977813 22600
SHENZHOU-22             
1 66645U 25272A   26097.88199626  .00025709  00000+0  28797-3 0  9996
2 66645  41.4681  30.3413 0004114 155.1431 204.9607 15.62087922282504
SOYUZ-MS 28             
1 66664U 25275A   26097.81163520  .00007114  00000+0  13797-3 0  9991
2 66664  51.6331 288.3735 0006339 285.1531  74.8756 15.48821670560988
