[{"OBJECT_NAME":"ISS (ZARYA)","OBJECT_ID":"1998-067A","EPOCH":"2026-04-07T13:17:06.254304","MEAN_MOTION":15.48817814,"ECCENTRICITY":0.00063325,"INCLINATION":51.6328,"RA_OF_ASC_NODE":289.6501,"ARG_OF_PERICENTER":284.4831,"MEAN_ANOMALY":75.5455,"EPHEMERIS_TYPE":0,"CLASSIFICATION_TYPE":"U","NORAD_CAT_ID":25544,"ELEMENT_SET_NO":999,"REV_AT_EPOCH":56080,"BSTAR":0.00013586947,"MEAN_MOTION_DOT":6.997e-5,"MEAN_MOTION_DDOT":0},{"OBJECT_NAME":"POISK","OBJECT_ID":"2009-060A","EPOCH":"2026-04-07T19:28:45.281280","MEAN_MOTION":15.4882167,"ECCENTRICITY":0.0006339,"INCLINATION":51.6331,"RA_OF_ASC_NODE":288.3735,"ARG_OF_PERICENTER":285.1531,"MEAN_ANOMALY":74.8756,"EPHEMERIS_TYPE":0,"CLASSIFICATION_TYPE":"U","NORAD_CAT_ID":36086,"ELEMENT_SET_NO":999,"REV_AT_EPOCH":56070,"BSTAR":0.00013797,"MEAN_MOTION_DOT":7.114e-5,"MEAN_MOTION_DDOT":0},{"OBJECT_NAME":"CSS (TIANHE)","OBJECT_ID":"2021-035A","EPOCH":"2026-04-07T05:49:25.494816","MEAN_MOTION":15.62057309,"ECCENTRICITY":0.00039086,"INCLINATION":41.4683,"RA_OF_ASC_NODE":34.2394,"ARG_OF_PERICENTER":149.0063,"MEAN_ANOMALY":211.1007,"EPHEMERIS_TYPE":0,"CLASSIFICATION_TYPE":"U","NORAD_CAT_ID":48274,"ELEMENT_SET_NO":999,"REV_AT_EPOCH":28207,"BSTAR":0.00034619354,"MEAN_MOTION_DOT":0.0003096,"MEAN_MOTION_DDOT":0},{"OBJECT_NAME":"ISS (NAUKA)","OBJECT_ID":"2021-066A","EPOCH":"2026-04-07T13:17:06.254304","MEAN_MOTION":15.48817814,"ECCENTRICITY":0.00063325,"INCLINATION":51.6328,"RA_OF_ASC_NODE":289.6501,"ARG_OF_PERICENTER":284.4831,"MEAN_ANOMALY":75.5455,"EPHEMERIS_TYPE":0,"CLASSIFICATION_TYPE":"U","NORAD_CAT_ID":49044,"ELEMENT_SET_NO":999,"REV_AT_EPOCH":56061,"BSTAR":0.00013586947,"MEAN_MOTION_DOT":6.997e-5,"MEAN_MOTION_DDOT":0},{"OBJECT_NAME":"FREGAT DEB","OBJECT_ID":"2011-037PF","EPOCH":"2026-04-07T06:49:07.162752","MEAN_MOTION":12.40960263,"ECCENTRICITY":0.09536257,"INCLINATION":51.6404,"RA_OF_ASC_NODE":214.8833,"ARG_OF_PERICENTER":124.9641,"MEAN_ANOMALY":244.4565,"EPHEMERIS_TYPE":0,"CLASSIFICATION_TYPE":"U","NORAD_CAT_ID":49271,"ELEMENT_SET_NO":999,"REV_AT_EPOCH":21624,"BSTAR":0.010388597,"MEAN_MOTION_DOT":7.09e-5,"MEAN_MOTION_DDOT":0},{"OBJECT_NAME":"CSS (WENTIAN)","OBJECT_ID":"2022-085A","EPOCH":"2026-04-07T05:49:25.494816","MEAN_MOTION":15.62057309,"ECCENTRICITY":0.00039086,"INCLINATION":41.4683,"RA_OF_ASC_NODE":34.2394,"ARG_OF_PERICENTER":149.0063,"MEAN_ANOMALY":211.1007,"EPHEMERIS_TYPE":0,"CLASSIFICATION_TYPE":"U","NORAD_CAT_ID":53239,"ELEMENT_SET_NO":999,"REV_AT_EPOCH":28235,"BSTAR":0.00034619354,"MEAN_MOTION_DOT":0.0003096,"MEAN_MOTION_DDOT":0},{"OBJECT_NAME":"CSS (MENGTIAN)","OBJECT_ID":"2022-143A","EPOCH":"2026-04-07T05:49:25.494816","MEAN_MOTION":15.62057309,"ECCENTRICITY":0.00039086,"INCLINATION":41.4683,"RA_OF_ASC_NODE":34.2394,"ARG_OF_PERICENTER":149.0063,"MEAN_ANOMALY":211.1007,"EPHEMERIS_TYPE":0,"CLASSIFICATION_TYPE":"U","NORAD_CAT_ID":54216,"ELEMENT_SET_NO":999,"REV_AT_EPOCH":28235,"BSTAR":0.00034619354,"MEAN_MOTION_DOT":0.0003096,"MEAN_MOTION_DDOT":0},{"OBJECT_NAME":"TIANZHOU-9","OBJECT_ID":"2025-149A","EPOCH":"2026-04-07T05:49:25.494816","MEAN_MOTION":15.62057309,"ECCENTRICITY":0.00039086,"INCLINATION":41.4683,"RA_OF_ASC_NODE":34.2394,"ARG_OF_PERICENTER":149.0063,"MEAN_ANOMALY":211.1007,"EPHEMERIS_TYPE":0,"CLASSIFICATION_TYPE":"U","NORAD_CAT_ID":64786,"ELEMENT_SET_NO":999,"REV_AT_EPOCH":28235,"BSTAR":0.00034619354,"MEAN_MOTION_DOT":0.0003096,"MEAN_MOTION_DDOT":0},{"OBJECT_NAME":"PROGRESS-MS 32","OBJECT_ID":"2025-204A","EPOCH":"2026-04-07T13:17:06.254304","MEAN_MOTION":15.48817814,"ECCENTRICITY":0.00063325,"INCLINATION":51.6328,"RA_OF_ASC_NODE":289.6501,"ARG_OF_PERICENTER":284.4831,"MEAN_ANOMALY":75.5455,"EPHEMERIS_TYPE":0,"CLASSIFICATION_TYPE":"U","NORAD_CAT_ID":65586,"ELEMENT_SET_NO":999,"REV_AT_EPOCH":55450,"BSTAR":0.00013586947,"MEAN_MOTION_DOT":6.997e-5,"MEAN_MOTION_DDOT":0},{"OBJECT_NAME":"YOTSUBA-KULOVER","OBJECT_ID":"1998-067XN","EPOCH":"2026-04-07T18:05:58.052832","MEAN_MOTION":16.03604454,"ECCENTRICITY":0.0009569,"INCLINATION":51.6139,"RA_OF_ASC_NODE":264.5587,"ARG_OF_PERICENTER":287.9509,"MEAN_ANOMALY":72.0459,"EPHEMERIS_TYPE":0,"CLASSIFICATION_TYPE":"U","NORAD_CAT_ID":65941,"ELEMENT_SET_NO":999,"REV_AT_EPOCH":2812,"BSTAR":0.0012041,"MEAN_MOTION_DOT":0.00782216,"MEAN_MOTION_DDOT":0.00031052},{"OBJECT_NAME":"BOTAN","OBJECT_ID":"1998-067XQ","EPOCH":"2026-04-07T20:04:44.260896","MEAN_MOTION":16.01506813,"ECCENTRICITY":0.0009292,"INCLINATION":51.6174,"RA_OF_ASC_NODE":264.392,"ARG_OF_PERICENTER":286.3833,"MEAN_ANOMALY":73.6156,"EPHEMERIS_TYPE":0,"CLASSIFICATION_TYPE":"U","NORAD_CAT_ID":65943,"ELEMENT_SET_NO":999,"REV_AT_EPOCH":2813,"BSTAR":0.0012016,"MEAN_MOTION_DOT":0.00689339,"MEAN_MOTION_DDOT":0.00023094},{"OBJECT_NAME":"HRC MONOBLOCK CAMERA","OBJECT_ID":"1998-067XR","EPOCH":"2026-04-06T16:35:43.020096","MEAN_MOTION":15.65455485,"ECCENTRICITY":0.00038128,"INCLINATION":51.6271,"RA_OF_ASC_NODE":283.8871,"ARG_OF_PERICENTER":235.8799,"MEAN_ANOMALY":124.1835,"EPHEMERIS_TYPE":0,"CLASSIFICATION_TYPE":"U","NORAD_CAT_ID":66052,"ELEMENT_SET_NO":999,"REV_AT_EPOCH":2677,"BSTAR":0.00066599471,"MEAN_MOTION_DOT":0.00067978,"MEAN_MOTION_DDOT":0},{"OBJECT_NAME":"HTV-X1","OBJECT_ID":"2025-241A","EPOCH":"2026-04-07T20:45:26.912448","MEAN_MOTION":15.32577629,"ECCENTRICITY":0.0007378,"INCLINATION":51.6371,"RA_OF_ASC_NODE":292.4123,"ARG_OF_PERICENTER":285.9402,"MEAN_ANOMALY":74.0766,"EPHEMERIS_TYPE":0,"CLASSIFICATION_TYPE":"U","NORAD_CAT_ID":66174,"ELEMENT_SET_NO":999,"REV_AT_EPOCH":2541,"BSTAR":0.00015797,"MEAN_MOTION_DOT":4.678e-5,"MEAN_MOTION_DDOT":0},{"OBJECT_NAME":"SZ-21 MODULE","OBJECT_ID":"2025-246C","EPOCH":"2026-04-07T12:18:13.885344","MEAN_MOTION":15.70977813,"ECCENTRICITY":0.00037823,"INCLINATION":41.4753,"RA_OF_ASC_NODE":25.6258,"ARG_OF_PERICENTER":241.5464,"MEAN_ANOMALY":118.4997,"EPHEMERIS_TYPE":0,"CLASSIFICATION_TYPE":"U","NORAD_CAT_ID":66515,"ELEMENT_SET_NO":999,"REV_AT_EPOCH":2260,"BSTAR":0.0003085559,"MEAN_MOTION_DOT":0.00039687,"MEAN_MOTION_DDOT":0},{"OBJECT_NAME":"SHENZHOU-22","OBJECT_ID":"2025-272A","EPOCH":"2026-04-07T21:10:04.476864","MEAN_MOTION":15.62087922,"ECCENTRICITY":0.0004114,"INCLINATION":41.4681,"RA_OF_ASC_NODE":30.3413,"ARG_OF_PERICENTER":155.1431,"MEAN_ANOMALY":204.9607,"EPHEMERIS_TYPE":0,"CLASSIFICATION_TYPE":"U","NORAD_CAT_ID":66645,"ELEMENT_SET_NO":999,"REV_AT_EPOCH":28250,"BSTAR":0.00028797,"MEAN_MOTION_DOT":0.00025709,"MEAN_MOTION_DDOT":0},{"OBJECT_NAME":"SOYUZ-MS 28","OBJECT_ID":"2025-275A","EPOCH":"2026-04-07T19:28:45.281280","MEAN_MOTION":15.4882167,"ECCENTRICITY":0.0006339,"INCLINATION":51.6331,"RA_OF_ASC_NODE":288.3735,"ARG_OF_PERICENTER":285.1531,"MEAN_ANOMALY":74.8756,"EPHEMERIS_TYPE":0,"CLASSIFICATION_TYPE":"U","NORAD_CAT_ID":66664,"ELEMENT_SET_NO":999,"REV_AT_EPOCH":56098,"BSTAR":0.00013797,"MEAN_MOTION_DOT":7.114e-5,"MEAN_MOTION_DDOT":0}]
